OBJECT_NAME,OBJECT_ID,EPOCH,MEAN_MOTION,ECCENTRICITY,INCLINATION,RA_OF_ASC_NODE,ARG_OF_PERICENTER,MEAN_ANOMALY,EPHEMERIS_TYPE,CLASSIFICATION_TYPE,NORAD_CAT_ID,ELEMENT_SET_NO,REV_AT_EPOCH,BSTAR,MEAN_MOTION_DOT,MEAN_MOTION_DDOT
ORBCOMM FM06,1997-084G,2026-06-08T12:52:43.762368,14.47541796,.0001891,45.0137,94.3553,304.6268,226.3117,0,U,25118,999,49313,.4191E-3,.1411E-4,0
ORBCOMM FM04,1998-007C,2026-06-08T19:47:19.432608,14.35726025,.0041066,107.9626,152.2079,339.1724,20.7742,0,U,25159,999,47539,.34939E-3,.888E-5,0
ORBCOMM FM19,1998-046C,2026-06-08T14:33:10.838880,14.39482707,.0004318,44.9944,284.3488,247.3219,131.3998,0,U,25415,999,45554,.32314E-3,.874E-5,0
ORBCOMM FM20,1998-046D,2026-06-07T01:53:15.315936,14.38052845,.0001612,44.9949,299.4212,215.8377,144.2363,0,U,25416,999,45533,.27803E-3,.707E-5,0
ORBCOMM FM27,1998-053G,2026-06-08T20:34:27.926688,14.39126061,.0000245,45.0065,14.9171,122.8540,237.2333,0,U,25481,999,44903,.33612E-3,.907E-5,0
ORBCOMM FM32,1999-065C,2026-06-07T20:04:11.409888,14.37120115,.00051274,45.0143,217.5021,347.4270,12.6449,0,U,25982,999,38574,.25418384E-3,.62E-5,0
ORBCOMM FM109,2014-040A,2026-06-08T14:32:23.220384,14.58836358,.0001655,47.0017,132.0583,221.2849,138.7912,0,U,40086,999,63309,.16383E-3,.603E-5,0
ORBCOMM FM114,2015-081A,2026-06-08T10:01:25.516416,14.58848434,.0001977,47.0058,43.4650,170.6189,189.4734,0,U,41179,999,55647,.13985E-3,.49E-5,0
ORBCOMM FM110,2015-081D,2026-06-08T09:44:53.178720,14.58866539,.0002852,47.0028,42.9609,26.3800,333.7231,0,U,41182,999,55634,.19351E-3,.743E-5,0
ORBCOMM FM118,2015-081E,2026-06-08T08:55:34.092768,14.58872980,.0003135,47.0109,43.4533,338.0740,22.0011,0,U,41183,999,55644,.61393E-3,.2733E-4,0
ORBCOMM FM112,2015-081F,2026-06-07T16:36:11.603808,14.58890878,.00031239,47.0001,315.1475,175.6095,184.4819,0,U,41184,999,55756,.20932025E-3,.819E-5,0
ORBCOMM FM113,2015-081G,2026-06-08T03:32:28.144608,14.58849184,.00017384,47.0018,313.3644,188.1874,171.8983,0,U,41185,999,55761,.14298569E-3,.505E-5,0
ORBCOMM FM108,2015-081J,2026-06-08T10:51:31.680864,14.58862136,.000251,47.0040,223.4955,184.4862,175.6002,0,U,41187,999,55880,.15217E-3,.548E-5,0
ORBCOMM FM117,2015-081K,2026-06-07T20:52:51.913056,14.58857943,.00029806,47.0005,224.8856,184.7848,175.3010,0,U,41188,999,55876,.16110195E-3,.59E-5,0
ORBCOMM FM116,2015-081L,2026-06-07T17:07:36.101856,14.58869594,.00011218,47.0035,315.4145,3.5235,356.5659,0,U,41189,999,55755,.21737163E-3,.857E-5,0
